HAWK-9C                 
1 59448U 24066G   26067.56477702  .00003036  00000+0  26713-3 0  9990
2 59448  45.5963  76.3952 0003436 229.7565 130.3016 14.98771048104736
STARLINK-36262          
1 67201U 25304K   26068.70840640  .00004791  00000+0  40898-3 0  9993
2 67201  70.0018 174.5677 0003150 272.8714  87.2084 14.98338183 13888
